{
  "type": "FeatureCollection",
  "features": [
    {
      "type": "Feature",
      "properties": {
        "norad_id": 40894,
        "name": "GAOFEN-9 01",
        "group": "resource",
        "lat": 51.02323684892158,
        "lon": -152.66489472946716,
        "alt_km": 609.4544280269283,
        "timestamp": "2025-12-04T10:51:49.763285+00:00",
        "meta_object_name": "GAOFEN-9 01",
        "meta_object_id": "2015-047A",
        "meta_epoch": "2025-12-04T00:34:11.453952",
        "meta_mean_motion": 14.82388441,
        "meta_eccentricity": 0.00289046,
        "meta_inclination": 97.6555,
        "meta_ra_of_asc_node": 17.3555,
        "meta_arg_of_pericenter": 61.7366,
        "meta_mean_anomaly": 298.676,
        "meta_ephemeris_type": 0,
        "meta_classification_type": "U",
        "meta_norad_cat_id": 40894,
        "meta_element_set_no": 999,
        "meta_rev_at_epoch": 55127,
        "meta_bstar": 0.00028319899,
        "meta_mean_motion_dot": 2.233e-05,
        "meta_mean_motion_ddot": 0,
        "tle_line1": "1 40894U 15047A   25338.02374368  .00002233  00000+0  28320-3 0  9993",
        "tle_line2": "2 40894  97.6555  17.3555 0028904  61.7366 298.6760 14.82388441551273"
      },
      "geometry": {
        "type": "Point",
        "coordinates": [
          -152.66489472946716,
          51.02323684892158
        ]
      }
    },
    {
      "type": "Feature",
      "properties": {
        "norad_id": 41026,
        "name": "YAOGAN-28",
        "group": "resource",
        "lat": 65.77863952768583,
        "lon": -47.010418437403814,
        "alt_km": 480.7136326578511,
        "timestamp": "2025-12-04T10:51:49.763296+00:00",
        "meta_object_name": "YAOGAN-28",
        "meta_object_id": "2015-064A",
        "meta_epoch": "2025-12-04T04:03:58.969728",
        "meta_mean_motion": 15.24121304,
        "meta_eccentricity": 0.001201,
        "meta_inclination": 97.28,
        "meta_ra_of_asc_node": 116.2054,
        "meta_arg_of_pericenter": 154.4362,
        "meta_mean_anomaly": 205.7472,
        "meta_ephemeris_type": 0,
        "meta_classification_type": "U",
        "meta_norad_cat_id": 41026,
        "meta_element_set_no": 999,
        "meta_rev_at_epoch": 56094,
        "meta_bstar": 0.0007396,
        "meta_mean_motion_dot": 0.00017972,
        "meta_mean_motion_ddot": 0,
        "tle_line1": "1 41026U 15064A   25338.16943252  .00017972  00000+0  73960-3 0  9995",
        "tle_line2": "2 41026  97.2800 116.2054 0012010 154.4362 205.7472 15.24121304560943"
      },
      "geometry": {
        "type": "Point",
        "coordinates": [
          -47.010418437403814,
          65.77863952768583
        ]
      }
    },
    {
      "type": "Feature",
      "properties": {
        "norad_id": 41038,
        "name": "YAOGAN-29",
        "group": "resource",
        "lat": 1.4091565086510334,
        "lon": 1.3986840022962068,
        "alt_km": 622.6265793918128,
        "timestamp": "2025-12-04T10:51:49.763307+00:00",
        "meta_object_name": "YAOGAN-29",
        "meta_object_id": "2015-069A",
        "meta_epoch": "2025-12-04T04:22:46.355808",
        "meta_mean_motion": 14.82868214,
        "meta_eccentricity": 7.04e-05,
        "meta_inclination": 98.0227,
        "meta_ra_of_asc_node": 1.3264,
        "meta_arg_of_pericenter": 4.2145,
        "meta_mean_anomaly": 355.9074,
        "meta_ephemeris_type": 0,
        "meta_classification_type": "U",
        "meta_norad_cat_id": 41038,
        "meta_element_set_no": 999,
        "meta_rev_at_epoch": 54172,
        "meta_bstar": 0.00012958,
        "meta_mean_motion_dot": 9.95e-06,
        "meta_mean_motion_ddot": 0,
        "tle_line1": "1 41038U 15069A   25338.18248097  .00000995  00000+0  12958-3 0  9997",
        "tle_line2": "2 41038  98.0227   1.3264 0000704   4.2145 355.9074 14.82868214541725"
      },
      "geometry": {
        "type": "Point",
        "coordinates": [
          1.3986840022962068,
          1.4091565086510334
        ]
      }
    },
    {
      "type": "Feature",
      "properties": {
        "norad_id": 41167,
        "name": "KENT RIDGE 1",
        "group": "resource",
        "lat": 6.4451755512559465,
        "lon": -62.37663728011431,
        "alt_km": 491.76928915192093,
        "timestamp": "2025-12-04T10:51:49.763317+00:00",
        "meta_object_name": "KENT RIDGE 1",
        "meta_object_id": "2015-077B",
        "meta_epoch": "2025-12-04T01:18:41.430816",
        "meta_mean_motion": 15.21528347,
        "meta_eccentricity": 0.0008643,
        "meta_inclination": 14.9803,
        "meta_ra_of_asc_node": 275.5817,
        "meta_arg_of_pericenter": 7.7804,
        "meta_mean_anomaly": 352.2651,
        "meta_ephemeris_type": 0,
        "meta_classification_type": "U",
        "meta_norad_cat_id": 41167,
        "meta_element_set_no": 999,
        "meta_rev_at_epoch": 55131,
        "meta_bstar": 0.00031346,
        "meta_mean_motion_dot": 8.044e-05,
        "meta_mean_motion_ddot": 0,
        "tle_line1": "1 41167U 15077B   25338.05464619  .00008044  00000+0  31346-3 0  9990",
        "tle_line2": "2 41167  14.9803 275.5817 0008643   7.7804 352.2651 15.21528347551315"
      },
      "geometry": {
        "type": "Point",
        "coordinates": [
          -62.37663728011431,
          6.4451755512559465
        ]
      }
    },
    {
      "type": "Feature",
      "properties": {
        "norad_id": 41194,
        "name": "GAOFEN-4",
        "group": "resource",
        "lat": -0.13479963951999926,
        "lon": -17.82989688035854,
        "alt_km": 35800.14149431531,
        "timestamp": "2025-12-04T10:51:49.763330+00:00",
        "meta_object_name": "GAOFEN-4",
        "meta_object_id": "2015-083A",
        "meta_epoch": "2025-12-03T20:03:59.764032",
        "meta_mean_motion": 1.00273387,
        "meta_eccentricity": 0.00037375,
        "meta_inclination": 0.146,
        "meta_ra_of_asc_node": 80.7672,
        "meta_arg_of_pericenter": 104.6053,
        "meta_mean_anomaly": 294.2325,
        "meta_ephemeris_type": 0,
        "meta_classification_type": "U",
        "meta_norad_cat_id": 41194,
        "meta_element_set_no": 999,
        "meta_rev_at_epoch": 3657,
        "meta_bstar": 0,
        "meta_mean_motion_dot": -3.18e-06,
        "meta_mean_motion_ddot": 0,
        "tle_line1": "1 41194U 15083A   25337.83610838 -.00000318  00000+0  00000+0 0  9994",
        "tle_line2": "2 41194   0.1460  80.7672 0003737 104.6053 294.2325  1.00273387 36570"
      },
      "geometry": {
        "type": "Point",
        "coordinates": [
          -17.82989688035854,
          -0.13479963951999926
        ]
      }
    },
    {
      "type": "Feature",
      "properties": {
        "norad_id": 41240,
        "name": "JASON-3",
        "group": "resource",
        "lat": 52.956645055815024,
        "lon": -148.655657808079,
        "alt_km": 1309.8713040446328,
        "timestamp": "2025-12-04T10:51:49.763342+00:00",
        "meta_object_name": "JASON-3",
        "meta_object_id": "2016-002A",
        "meta_epoch": "2025-12-04T03:05:32.595936",
        "meta_mean_motion": 12.87626078,
        "meta_eccentricity": 0.0007138,
        "meta_inclination": 66.0392,
        "meta_ra_of_asc_node": 175.9281,
        "meta_arg_of_pericenter": 270.3407,
        "meta_mean_anomaly": 89.6794,
        "meta_ephemeris_type": 0,
        "meta_classification_type": "U",
        "meta_norad_cat_id": 41240,
        "meta_element_set_no": 999,
        "meta_rev_at_epoch": 46213,
        "meta_bstar": 0.00018757,
        "meta_mean_motion_dot": -1.5e-07,
        "meta_mean_motion_ddot": 0,
        "tle_line1": "1 41240U 16002A   25338.12884949 -.00000015  00000+0  18757-3 0  9993",
        "tle_line2": "2 41240  66.0392 175.9281 0007138 270.3407  89.6794 12.87626078462130"
      },
      "geometry": {
        "type": "Point",
        "coordinates": [
          -148.655657808079,
          52.956645055815024
        ]
      }
    },
    {
      "type": "Feature",
      "properties": {
        "norad_id": 41335,
        "name": "SENTINEL-3A",
        "group": "resource",
        "lat": -65.84655840096096,
        "lon": 63.35926632807349,
        "alt_km": 810.5031322856948,
        "timestamp": "2025-12-04T10:51:49.763353+00:00",
        "meta_object_name": "SENTINEL-3A",
        "meta_object_id": "2016-011A",
        "meta_epoch": "2025-12-04T04:26:47.854176",
        "meta_mean_motion": 14.26741561,
        "meta_eccentricity": 9.83e-05,
        "meta_inclination": 98.6218,
        "meta_ra_of_asc_node": 43.3206,
        "meta_arg_of_pericenter": 91.3246,
        "meta_mean_anomaly": 268.8047,
        "meta_ephemeris_type": 0,
        "meta_classification_type": "U",
        "meta_norad_cat_id": 41335,
        "meta_element_set_no": 999,
        "meta_rev_at_epoch": 51025,
        "meta_bstar": 0.00014542,
        "meta_mean_motion_dot": 3.08e-06,
        "meta_mean_motion_ddot": 0,
        "tle_line1": "1 41335U 16011A   25338.18527609  .00000308  00000+0  14542-3 0  9993",
        "tle_line2": "2 41335  98.6218  43.3206 0000983  91.3246 268.8047 14.26741561510250"
      },
      "geometry": {
        "type": "Point",
        "coordinates": [
          63.35926632807349,
          -65.84655840096096
        ]
      }
    }
  ]
}